[{"OBJECT_NAME":"AFR-1","OBJECT_ID":"2023-084AJ","EPOCH":"2026-03-09T23:02:07.499328","MEAN_MOTION":15.27543824,"ECCENTRICITY":0.00099838,"INCLINATION":97.6099,"RA_OF_ASC_NODE":203.4313,"ARG_OF_PERICENTER":334.9676,"MEAN_ANOMALY":25.1077,"EPHEMERIS_TYPE":0,"CLASSIFICATION_TYPE":"U","NORAD_CAT_ID":56964,"ELEMENT_SET_NO":999,"REV_AT_EPOCH":15207,"BSTAR":0.00024843733,"MEAN_MOTION_DOT":6.624e-5,"MEAN_MOTION_DDOT":0},{"OBJECT_NAME":"STARLINK-32182","OBJECT_ID":"2024-133U","EPOCH":"2026-03-09T01:24:00.721152","MEAN_MOTION":15.30193796,"ECCENTRICITY":0.000108,"INCLINATION":53.16,"RA_OF_ASC_NODE":299.9979,"ARG_OF_PERICENTER":85.6382,"MEAN_ANOMALY":274.4742,"EPHEMERIS_TYPE":0,"CLASSIFICATION_TYPE":"U","NORAD_CAT_ID":60319,"ELEMENT_SET_NO":999,"REV_AT_EPOCH":9154,"BSTAR":2.0727103e-5,"MEAN_MOTION_DOT":2.55e-6,"MEAN_MOTION_DDOT":0}]
